[
    {
        "Altitude(m)": 610399.5771373676,
        "Argument of Periapsis(deg)": 0.0,
        "Eccentricity": 0.0,
        "Inclination(deg)": 60.0,
        "Latitude(deg)": 52.11146819089066,
        "Longitude(deg)": 97.58429440873213,
        "Mean Anomaly(deg)": 65.45450000000001,
        "RAAN(deg)": 150.0,
        "Satellite Name": "Test1 664",
        "Satellite Number": 664,
        "Semi-Major Axis(m)": 6980739.136638005,
        "Time(s)": 0
    },
    {
        "Altitude(m)": 610481.7281064768,
        "Argument of Periapsis(deg)": 0.00010418945913296404,
        "Eccentricity": 0.0,
        "Inclination(deg)": 60.0,
        "Latitude(deg)": 52.47107054407837,
        "Longitude(deg)": 98.36643283769837,
        "Mean Anomaly(deg)": 66.07460614546181,
        "RAAN(deg)": 149.99957995086027,
        "Satellite Name": "Test1 664",
        "Satellite Number": 664,
        "Semi-Major Axis(m)": 6980739.136638005,
        "Time(s)": 10
    }
]